NORAD_CAT_ID,OBJECT_NAME,OBJECT_TYPE,EPOCH,MEAN_MOTION,ECCENTRICITY,INCLINATION,RA_OF_ASC_NODE,ARG_OF_PERICENTER,MEAN_ANOMALY,BSTAR,MEAN_MOTION_DOT,MEAN_MOTION_DDOT,TLE_LINE0,TLE_LINE1,TLE_LINE2,SEMIMAJOR_AXIS,PERIOD,APOGEE,PERIGEE,DECAYED
52466.0,STARLINK-3840,PAYLOAD,2023-01-17 02:50:23,15.0883457,0.0003203,53.2186,170.7712,51.9182,308.2098,4.132e-05,3.69e-06,0.0,0 STARLINK-3840,1 52466U 22049R   23017.11832887  .00000369  00000-0  41320-4 0  9993,2 52466  53.2186 170.7712 0003203  51.9182 308.2098 15.08834570 39002,6917.897,95.438,541.9780000000001,537.5459999999999,0.0
52466.0,STARLINK-3840,PAYLOAD,2023-01-17 18:44:15,15.08831793,0.0003243999999999,53.2189,167.7977,54.5569,305.5726,7.6998e-06,-1.66e-06,0.0,0 STARLINK-3840,1 52466U 22049R   23017.78073463 -.00000166  00000-0  76998-5 0  9999,2 52466  53.2189 167.7977 0003244  54.5569 305.5726 15.08831793 39267,6917.905,95.438,542.015,537.526,0.0
52466.0,STARLINK-3840,PAYLOAD,2023-01-18 15:24:15,15.08841809,0.0003281,53.2193,163.9322,58.745,301.3863,6.2001e-05,6.98e-06,0.0,0 STARLINK-3840,1 52466U 22049R   23018.64184919  .00000698  00000-0  62001-4 0  9992,2 52466  53.2193 163.9322 0003281  58.7450 301.3863 15.08841809 39399,6917.875,95.437,542.01,537.47,0.0
52466.0,STARLINK-3840,PAYLOAD,2023-01-19 10:28:54,15.0883101,0.0003321,53.2178,160.3635,61.2841,298.8485,6.0123e-05,6.68e-06,0.0,0 STARLINK-3840,1 52466U 22049R   23019.43673832  .00000668  00000-0  60123-4 0  9997,2 52466  53.2178 160.3635 0003321  61.2841 298.8485 15.08831010 39515,6917.908,95.438,542.07,537.475,0.0
52466.0,STARLINK-3840,PAYLOAD,2023-01-19 16:50:26,15.0884082,0.0003092,53.2177,159.1734,61.3789,298.7514,6.7247e-05,7.82e-06,0.0,0 STARLINK-3840,1 52466U 22049R   23019.70169248  .00000782  00000-0  67247-4 0  9999,2 52466  53.2177 159.1734 0003092  61.3789 298.7514 15.08840820 39552,6917.878000000001,95.438,541.882,537.604,0.0
52466.0,STARLINK-3840,PAYLOAD,2023-01-20 08:44:17,15.08841969,0.0002918,53.2178,156.2007,61.6464,298.4822,4.9904e-05,5.06e-06,0.0,0 STARLINK-3840,1 52466U 22049R   23020.36409169  .00000506  00000-0  49904-4 0  9996,2 52466  53.2178 156.2007 0002918  61.6464 298.4822 15.08841969 39490,6917.874,95.437,541.758,537.721,0.0
52466.0,STARLINK-3840,PAYLOAD,2023-01-20 16:41:12,15.08854961,0.0002945,53.2182,154.7122,64.4404,295.6892,0.00015374,2.1600000000000003e-05,0.0,0 STARLINK-3840,1 52466U 22049R   23020.69527901  .00002160  00000-0  15374-3 0  9998,2 52466  53.2182 154.7122 0002945  64.4404 295.6892 15.08854961 39707,6917.835,95.437,541.737,537.6619999999999,0.0
52466.0,STARLINK-3840,PAYLOAD,2023-01-21 02:13:31,15.088433600000002,0.0003043,53.2188,152.9325,60.2119,299.9175,5.634e-05,6.08e-06,0.0,0 STARLINK-3840,1 52466U 22049R   23021.09272860  .00000608  00000-0  56340-4 0  9998,2 52466  53.2188 152.9325 0003043  60.2119 299.9175 15.08843360 39763,6917.87,95.437,541.84,537.63,0.0
52466.0,STARLINK-3840,PAYLOAD,2023-01-21 11:45:51,15.08829573,0.000291,53.2188,151.1461,65.9276,294.2021,-1.7967e-06,-3.17e-06,0.0,0 STARLINK-3840,1 52466U 22049R   23021.49017954 -.00000317  00000-0 -17967-5 0  9995,2 52466  53.2188 151.1461 0002910  65.9276 294.2021 15.08829573 39828,6917.911999999999,95.438,541.79,537.764,0.0
52466.0,STARLINK-3840,PAYLOAD,2023-01-21 14:56:37,15.08834595,0.0002757,53.218,150.5505,68.959,291.1697,9.2024e-05,1.176e-05,0.0,0 STARLINK-3840,1 52466U 22049R   23021.62265360  .00001176  00000-0  92024-4 0  9994,2 52466  53.2180 150.5505 0002757  68.9590 291.1697 15.08834595 39840,6917.897,95.438,541.669,537.855,0.0
52466.0,STARLINK-3840,PAYLOAD,2023-01-22 14:47:23,15.08843939,0.000281,53.2193,146.091,72.4183,287.7116,8.777e-05,1.109e-05,0.0,0 STARLINK-3840,1 52466U 22049R   23022.61624767  .00001109  00000-0  87770-4 0  9992,2 52466  53.2193 146.0910 0002810  72.4183 287.7116 15.08843939 39997,6917.868,95.437,541.677,537.789,0.0
52466.0,STARLINK-3840,PAYLOAD,2023-01-23 14:38:11,15.08839676,0.0002686999999999,53.2191,141.6284,78.4336,281.6957,0.00011879,1.603e-05,0.0,0 STARLINK-3840,1 52466U 22049R   23023.60985013  .00001603  00000-0  11879-3 0  9991,2 52466  53.2191 141.6284 0002687  78.4336 281.6957 15.08839676 40146,6917.880999999999,95.438,541.605,537.888,0.0
52466.0,STARLINK-3840,PAYLOAD,2023-01-24 16:04:21,15.08846645,0.0002423999999999,53.218,136.8696,80.9138,279.2128,6.8632e-05,8.04e-06,0.0,0 STARLINK-3840,1 52466U 22049R   23024.66968963  .00000804  00000-0  68632-4 0  9995,2 52466  53.2180 136.8696 0002424  80.9138 279.2128 15.08846645 40309,6917.86,95.437,541.4019999999999,538.048,0.0
52466.0,STARLINK-3840,PAYLOAD,2023-01-25 12:44:22,15.08835655,0.0002394,53.2179,133.0043,88.8555,271.2711,1.3746e-06,-2.67e-06,0.0,0 STARLINK-3840,1 52466U 22049R   23025.53082105 -.00000267  00000-0  13746-5 0  9998,2 52466  53.2179 133.0043 0002394  88.8555 271.2711 15.08835655 40431,6917.894,95.438,541.415,538.1030000000001,0.0
52466.0,STARLINK-3840,PAYLOAD,2023-01-25 15:55:09,15.08837107,0.0002393,53.2178,132.41,89.1221,271.0045,1.4123e-05,-6.4e-07,0.0,0 STARLINK-3840,1 52466U 22049R   23025.66330005 -.00000064  00000-0  14123-4 0  9991,2 52466  53.2178 132.4100 0002393  89.1221 271.0045 15.08837107 40296,6917.889,95.438,541.41,538.099,0.0
52466.0,STARLINK-3840,PAYLOAD,2023-01-26 14:10:32,15.08846984,0.0002308,53.2188,128.2499,92.3026,267.8231,0.00010175,1.332e-05,0.0,0 STARLINK-3840,1 52466U 22049R   23026.59065374  .00001332  00000-0  10175-3 0  9998,2 52466  53.2188 128.2499 0002308  92.3026 267.8231 15.08846984 40435,6917.859,95.437,541.321,538.127,0.0
52466.0,STARLINK-3840,PAYLOAD,2023-01-27 06:04:24,15.08839068,0.0002348,53.2194,125.2774,91.0635,269.0626,7.1148e-05,8.44e-06,0.0,0 STARLINK-3840,1 52466U 22049R   23027.25305961  .00000844  00000-0  71148-4 0  9996,2 52466  53.2194 125.2774 0002348  91.0635 269.0626 15.08839068 40696,6917.883000000001,95.438,541.373,538.124,0.0
52466.0,STARLINK-3840,PAYLOAD,2023-01-27 14:01:20,15.08838644,0.0002105,53.2184,123.7866,91.7957,268.3276,4.4791000000000005e-05,4.25e-06,0.0,0 STARLINK-3840,1 52466U 22049R   23027.58426058  .00000425  00000-0  44791-4 0  9992,2 52466  53.2184 123.7866 0002105  91.7957 268.3276 15.08838644 40585,6917.885,95.438,541.206,538.293,0.0
52466.0,STARLINK-3840,PAYLOAD,2023-01-28 05:55:12,15.08835604,0.0002174,53.219,120.8162,87.3632,272.7609,-1.6887999999999998e-05,-5.57e-06,0.0,0 STARLINK-3840,1 52466U 22049R   23028.24666687 -.00000557  00000-0 -16888-4 0  9994,2 52466  53.2190 120.8162 0002174  87.3632 272.7609 15.08835604 40847,6917.894,95.438,541.263,538.255,0.0
52466.0,STARLINK-3840,PAYLOAD,2023-01-28 12:16:44,15.08844127,0.0002048,53.2184,119.6278,93.5724,266.5502,-6.1431e-05,-1.266e-05,0.0,0 STARLINK-3840,1 52466U 22049R   23028.51162270 -.00001266  00000-0 -61431-4 0  9995,2 52466  53.2184 119.6278 0002048  93.5724 266.5502 15.08844127 40725,6917.868,95.437,541.15,538.316,0.0
52466.0,STARLINK-3840,PAYLOAD,2023-01-28 15:27:29,15.0884981,0.0001929,53.2179,119.0304,92.2417,267.8796,-5.6952e-06,-3.79e-06,0.0,0 STARLINK-3840,1 52466U 22049R   23028.64409598 -.00000379  00000-0 -56952-5 0  9993,2 52466  53.2179 119.0304 0001929  92.2417 267.8796 15.08849810 40908,6917.85,95.437,541.05,538.381,0.0
52466.0,STARLINK-3840,PAYLOAD,2023-01-29 05:45:58,15.08832844,0.0001813,53.2182,116.3556,92.4079,267.712,6.5195e-05,7.49e-06,0.0,0 STARLINK-3840,1 52466U 22049R   23029.24026410  .00000749  00000-0  65195-4 0  9995,2 52466  53.2182 116.3556 0001813  92.4079 267.7120 15.08832844 40997,6917.902,95.438,541.021,538.513,0.0
52466.0,STARLINK-3840,PAYLOAD,2023-01-29 13:42:54,15.08841468,0.0001812,53.2177,114.8682,93.9422,266.1777,7.4684e-05,9.01e-06,0.0,0 STARLINK-3840,1 52466U 22049R   23029.57145897  .00000901  00000-0  74684-4 0  9995,2 52466  53.2177 114.8682 0001812  93.9422 266.1777 15.08841468 41041,6917.876,95.437,540.994,538.487,0.0
52466.0,STARLINK-3840,PAYLOAD,2023-01-30 13:33:40,15.08844952,0.0001769,53.2175,110.4067,99.7512,260.3679,7.0774e-05,8.39e-06,0.0,0 STARLINK-3840,1 52466U 22049R   23030.56505669  .00000839  00000-0  70774-4 0  9999,2 52466  53.2175 110.4067 0001769  99.7512 260.3679 15.08844952 41030,6917.865,95.437,540.954,538.506,0.0
52466.0,STARLINK-3840,PAYLOAD,2023-01-31 05:27:32,15.0883525,0.0001812,53.2173,107.4333,103.8812,256.2382,4.5587e-06,-2.16e-06,0.0,0 STARLINK-3840,1 52466U 22049R   23031.22746492 -.00000216  00000-0  45587-5 0  9999,2 52466  53.2173 107.4333 0001812 103.8812 256.2382 15.08835250 41293,6917.895,95.438,541.013,538.506,0.0
52466.0,STARLINK-3840,PAYLOAD,2023-01-31 13:24:27,15.08845836,0.0001611,53.2182,105.9463,101.4016,258.7157,4.7002e-05,4.6e-06,0.0,0 STARLINK-3840,1 52466U 22049R   23031.55865654  .00000460  00000-0  47002-4 0  9990,2 52466  53.2182 105.9463 0001611 101.4016 258.7157 15.08845836 41341,6917.863,95.437,540.842,538.613,0.0
52466.0,STARLINK-3840,PAYLOAD,2023-01-31 21:21:23,15.08842106,0.0001771,53.2181,104.4601,89.0343,271.0852,3.0856e-05,2.03e-06,0.0,0 STARLINK-3840,1 52466U 22049R   23031.88986027  .00000203  00000-0  30856-4 0  9998,2 52466  53.2181 104.4601 0001771  89.0343 271.0852 15.08842106 41234,6917.874,95.437,540.964,538.514,0.0
52466.0,STARLINK-3840,PAYLOAD,2023-02-01 05:18:19,15.08838863,0.0001705,53.2177,102.9739,97.0858,263.0328,-1.9725e-05,-6.02e-06,0.0,0 STARLINK-3840,1 52466U 22049R   23032.22106384 -.00000602  00000-0 -19725-4 0  9994,2 52466  53.2177 102.9739 0001705  97.0858 263.0328 15.08838863 41448,6917.884,95.438,540.928,538.569,0.0
52466.0,STARLINK-3840,PAYLOAD,2023-02-01 10:04:29,15.08841342,0.0001738,53.2177,102.0818,97.4389,262.68,2.3861e-06,-2.5e-06,0.0,0 STARLINK-3840,1 52466U 22049R   23032.41978152 -.00000250  00000-0  23861-5 0  9990,2 52466  53.2177 102.0818 0001738  97.4389 262.6800 15.08841342 41318,6917.876,95.437,540.944,538.539,0.0
